start=new Date('2022-01-04T00:00:00.000Z').valueOf();
sats=[{"RCS_SIZE":"LARGE","EPHEMERIS_TYPE":"0","PERIAPSIS":"545.862","FILE":"3255249","GP_ID":"192941187","CLASSIFICATION_TYPE":"U","MEAN_MOTION_DOT":"0.00000897","ARG_OF_PERICENTER":"67.4785","REV_AT_EPOCH":"8662","SITE":"AFETR","INCLINATION":"53.0536","MEAN_MOTION_DDOT":"0.0000000000000","MEAN_ANOMALY":"292.6413","ELEMENT_SET_NO":"999","OBJECT_ID":"2020-038BD","TLE_LINE2":"2 45781  53.0536 210.7876 0001972  67.4785 292.6413 15.06395238 86627","ECCENTRICITY":"0.00019720","BSTAR":"0.00007913800000","APOAPSIS":"548.594","NORAD_CAT_ID":"45781","MEAN_MOTION":"15.06395238","TIME_SYSTEM":"UTC","OBJECT_NAME":"STARLINK-1497","COUNTRY_CODE":"US","DECAY_DATE":null,"LAUNCH_DATE":"2020-06-13","PERIOD":"95.592","MEAN_ELEMENT_THEORY":"SGP4","EPOCH":"2022-01-02T20:52:50.904768","OBJECT_TYPE":"PAYLOAD","SEMIMAJOR_AXIS":"6925.363","REF_FRAME":"TEME","CENTER_NAME":"EARTH","RA_OF_ASC_NODE":"210.7876","TLE_LINE1":"1 45781U 20038BD  22002.87003362  .00000897  00000-0  79138-4 0  9999"},{"EPHEMERIS_TYPE":"0","RCS_SIZE":"LARGE","PERIAPSIS":"545.656","FILE":"3256498","MEAN_MOTION_DOT":"0.00000902","GP_ID":"193014642","CLASSIFICATION_TYPE":"U","REV_AT_EPOCH":"8677","SITE":"AFETR","INCLINATION":"53.0539","ARG_OF_PERICENTER":"75.0214","MEAN_MOTION_DDOT":"0.0000000000000","ELEMENT_SET_NO":"999","MEAN_ANOMALY":"285.1023","TLE_LINE2":"2 45782  53.0539 206.6477 0002241  75.0214 285.1023 15.06401768 86770","OBJECT_ID":"2020-038BE","ECCENTRICITY":"0.00022410","BSTAR":"0.00007946100000","MEAN_MOTION":"15.06401768","NORAD_CAT_ID":"45782","APOAPSIS":"548.760","OBJECT_NAME":"STARLINK-1498","TIME_SYSTEM":"UTC","COUNTRY_CODE":"US","DECAY_DATE":null,"LAUNCH_DATE":"2020-06-13","PERIOD":"95.592","EPOCH":"2022-01-03T18:59:46.258368","MEAN_ELEMENT_THEORY":"SGP4","OBJECT_TYPE":"PAYLOAD","SEMIMAJOR_AXIS":"6925.343","REF_FRAME":"TEME","CENTER_NAME":"EARTH","TLE_LINE1":"1 45782U 20038BE  22003.79150762  .00000902  00000-0  79461-4 0  9995","RA_OF_ASC_NODE":"206.6477"},{"BSTAR":"0.00013018000000","ECCENTRICITY":"0.00018500","OBJECT_ID":"2020-038BF","TLE_LINE2":"2 45783  53.0535 207.2075 0001850  78.4364 281.6833 15.06382238 86754","MEAN_ANOMALY":"281.6833","ELEMENT_SET_NO":"999","MEAN_MOTION_DDOT":"0.0000000000000","ARG_OF_PERICENTER":"78.4364","SITE":"AFETR","INCLINATION":"53.0535","REV_AT_EPOCH":"8675","MEAN_MOTION_DOT":"0.00001657","GP_ID":"193015889","CLASSIFICATION_TYPE":"U","FILE":"3256498","PERIAPSIS":"545.987","RCS_SIZE":"LARGE","EPHEMERIS_TYPE":"0","RA_OF_ASC_NODE":"207.2075","TLE_LINE1":"1 45783U 20038BF  22003.66251166  .00001657  00000-0  13018-3 0  9995","CENTER_NAME":"EARTH","REF_FRAME":"TEME","SEMIMAJOR_AXIS":"6925.403","OBJECT_TYPE":"PAYLOAD","MEAN_ELEMENT_THEORY":"SGP4","EPOCH":"2022-01-03T15:54:01.007424","PERIOD":"95.593","LAUNCH_DATE":"2020-06-13","DECAY_DATE":null,"COUNTRY_CODE":"US","TIME_SYSTEM":"UTC","OBJECT_NAME":"STARLINK-1505","NORAD_CAT_ID":"45783","APOAPSIS":"548.549","MEAN_MOTION":"15.06382238"},{"MEAN_ELEMENT_THEORY":"SGP4","EPOCH":"2022-01-03T16:52:22.712160","PERIOD":"95.592","SEMIMAJOR_AXIS":"6925.333","OBJECT_TYPE":"PAYLOAD","CENTER_NAME":"EARTH","REF_FRAME":"TEME","RA_OF_ASC_NODE":"207.0498","TLE_LINE1":"1 45784U 20038BG  22003.70304065  .00001011  00000-0  86761-4 0  9998","APOAPSIS":"548.653","NORAD_CAT_ID":"45784","MEAN_MOTION":"15.06404992","TIME_SYSTEM":"UTC","OBJECT_NAME":"STARLINK-1510","COUNTRY_CODE":"US","LAUNCH_DATE":"2020-06-13","DECAY_DATE":null,"OBJECT_ID":"2020-038BG","TLE_LINE2":"2 45784  53.0542 207.0498 0002101  77.7799 282.3426 15.06404992 86752","BSTAR":"0.00008676100000","ECCENTRICITY":"0.00021010","PERIAPSIS":"545.743","RCS_SIZE":"LARGE","EPHEMERIS_TYPE":"0","FILE":"3256498","ARG_OF_PERICENTER":"77.7799","SITE":"AFETR","INCLINATION":"53.0542","REV_AT_EPOCH":"8675","GP_ID":"193015639","MEAN_MOTION_DOT":"0.00001011","CLASSIFICATION_TYPE":"U","MEAN_ANOMALY":"282.3426","ELEMENT_SET_NO":"999","MEAN_MOTION_DDOT":"0.0000000000000"},{"TLE_LINE2":"2 45785  53.0529 206.5254 0001993  74.3212 285.7997 15.06403936 86772","OBJECT_ID":"2020-038BH","ECCENTRICITY":"0.00019930","BSTAR":"0.00007639900000","FILE":"3256498","EPHEMERIS_TYPE":"0","RCS_SIZE":"LARGE","PERIAPSIS":"545.821","MEAN_MOTION_DDOT":"0.0000000000000","ELEMENT_SET_NO":"999","MEAN_ANOMALY":"285.7997","CLASSIFICATION_TYPE":"U","GP_ID":"193014392","MEAN_MOTION_DOT":"0.00000857","SITE":"AFETR","INCLINATION":"53.0529","REV_AT_EPOCH":"8677","ARG_OF_PERICENTER":"74.3212","OBJECT_TYPE":"PAYLOAD","SEMIMAJOR_AXIS":"6925.336","PERIOD":"95.592","EPOCH":"2022-01-03T19:36:55.063008","MEAN_ELEMENT_THEORY":"SGP4","TLE_LINE1":"1 45785U 20038BH  22003.81730397  .00000857  00000-0  76399-4 0  9995","RA_OF_ASC_NODE":"206.5254","REF_FRAME":"TEME","CENTER_NAME":"EARTH","OBJECT_NAME":"STARLINK-1512","TIME_SYSTEM":"UTC","MEAN_MOTION":"15.06403936","NORAD_CAT_ID":"45785","APOAPSIS":"548.582","DECAY_DATE":null,"LAUNCH_DATE":"2020-06-13","COUNTRY_CODE":"US"},{"RA_OF_ASC_NODE":"206.5861","TLE_LINE1":"1 45786U 20038BJ  22003.80256633 -.00000469  00000-0 -12612-4 0  9990","CENTER_NAME":"EARTH","REF_FRAME":"TEME","SEMIMAJOR_AXIS":"6925.360","OBJECT_TYPE":"PAYLOAD","MEAN_ELEMENT_THEORY":"SGP4","EPOCH":"2022-01-03T19:15:41.730912","PERIOD":"95.592","LAUNCH_DATE":"2020-06-13","DECAY_DATE":null,"COUNTRY_CODE":"US","TIME_SYSTEM":"UTC","OBJECT_NAME":"STARLINK-1513","NORAD_CAT_ID":"45786","APOAPSIS":"548.287","MEAN_MOTION":"15.06396268","BSTAR":"-0.00001261200000","ECCENTRICITY":"0.00015340","OBJECT_ID":"2020-038BJ","TLE_LINE2":"2 45786  53.0538 206.5861 0001534  78.5785 281.5377 15.06396268 86774","MEAN_ANOMALY":"281.5377","ELEMENT_SET_NO":"999","MEAN_MOTION_DDOT":"0.0000000000000","ARG_OF_PERICENTER":"78.5785","SITE":"AFETR","REV_AT_EPOCH":"8677","INCLINATION":"53.0538","CLASSIFICATION_TYPE":"U","GP_ID":"193015138","MEAN_MOTION_DOT":"-0.00000469","FILE":"3256498","PERIAPSIS":"546.163","EPHEMERIS_TYPE":"0","RCS_SIZE":"LARGE"},{"FILE":"3256498","PERIAPSIS":"545.797","EPHEMERIS_TYPE":"0","RCS_SIZE":"LARGE","ELEMENT_SET_NO":"999","MEAN_ANOMALY":"283.8789","MEAN_MOTION_DDOT":"0.0000000000000","SITE":"AFETR","INCLINATION":"53.0538","REV_AT_EPOCH":"8677","ARG_OF_PERICENTER":"76.2430","MEAN_MOTION_DOT":"0.00001110","GP_ID":"193015394","CLASSIFICATION_TYPE":"U","TLE_LINE2":"2 45787  53.0538 206.5634 0002070  76.2430 283.8789 15.06394353 86776","OBJECT_ID":"2020-038BK","BSTAR":"0.00009340300000","ECCENTRICITY":"0.00020700","TIME_SYSTEM":"UTC","OBJECT_NAME":"STARLINK-1517","MEAN_MOTION":"15.06394353","APOAPSIS":"548.664","NORAD_CAT_ID":"45787","LAUNCH_DATE":"2020-06-13","DECAY_DATE":null,"COUNTRY_CODE":"US","SEMIMAJOR_AXIS":"6925.366","OBJECT_TYPE":"PAYLOAD","EPOCH":"2022-01-03T19:26:20.086080","MEAN_ELEMENT_THEORY":"SGP4","PERIOD":"95.592","TLE_LINE1":"1 45787U 20038BK  22003.80995470  .00001110  00000-0  93403-4 0  9999","RA_OF_ASC_NODE":"206.5634","CENTER_NAME":"EARTH","REF_FRAME":"TEME"},{"SITE":"AFETR","INCLINATION":"53.0532","REV_AT_EPOCH":"7888","ARG_OF_PERICENTER":"96.2952","CLASSIFICATION_TYPE":"U","GP_ID":"193015163","MEAN_MOTION_DOT":"0.00000167","ELEMENT_SET_NO":"999","MEAN_ANOMALY":"263.8248","MEAN_MOTION_DDOT":"0.0000000000000","PERIAPSIS":"545.956","RCS_SIZE":"LARGE","EPHEMERIS_TYPE":"0","FILE":"3256498","BSTAR":"0.00003010400000","ECCENTRICITY":"0.00018510","TLE_LINE2":"2 46027  53.0532 136.9800 0001851  96.2952 263.8248 15.06392115 78881","OBJECT_ID":"2020-055A","COUNTRY_CODE":"US","LAUNCH_DATE":"2020-08-07","DECAY_DATE":null,"MEAN_MOTION":"15.06392115","APOAPSIS":"548.520","NORAD_CAT_ID":"46027","OBJECT_NAME":"STARLINK-1522","TIME_SYSTEM":"UTC","CENTER_NAME":"EARTH","REF_FRAME":"TEME","TLE_LINE1":"1 46027U 20055A   22003.71686733  .00000167  00000-0  30104-4 0  9995","RA_OF_ASC_NODE":"136.9800","EPOCH":"2022-01-03T17:12:17.337312","MEAN_ELEMENT_THEORY":"SGP4","PERIOD":"95.593","SEMIMAJOR_AXIS":"6925.373","OBJECT_TYPE":"PAYLOAD"},{"COUNTRY_CODE":"US","DECAY_DATE":null,"LAUNCH_DATE":"2020-08-07","MEAN_MOTION":"15.06397698","APOAPSIS":"548.516","NORAD_CAT_ID":"46028","OBJECT_NAME":"STARLINK-1523","TIME_SYSTEM":"UTC","REF_FRAME":"TEME","CENTER_NAME":"EARTH","TLE_LINE1":"1 46028U 20055B   22003.59891310  .00002430  00000-0  18200-3 0  9998","RA_OF_ASC_NODE":"137.5026","PERIOD":"95.592","EPOCH":"2022-01-03T14:22:26.091840","MEAN_ELEMENT_THEORY":"SGP4","OBJECT_TYPE":"PAYLOAD","SEMIMAJOR_AXIS":"6925.356","GP_ID":"192973372","CLASSIFICATION_TYPE":"U","MEAN_MOTION_DOT":"0.00002430","REV_AT_EPOCH":"7836","SITE":"AFETR","INCLINATION":"53.0534","ARG_OF_PERICENTER":"102.1166","MEAN_MOTION_DDOT":"0.0000000000000","ELEMENT_SET_NO":"999","MEAN_ANOMALY":"258.0032","EPHEMERIS_TYPE":"0","RCS_SIZE":"LARGE","PERIAPSIS":"545.925","FILE":"3255307","ECCENTRICITY":"0.00018710","BSTAR":"0.00018200000000","TLE_LINE2":"2 46028  53.0534 137.5026 0001871 102.1166 258.0032 15.06397698 78368","OBJECT_ID":"2020-055B"},{"LAUNCH_DATE":"2020-08-07","DECAY_DATE":null,"COUNTRY_CODE":"US","OBJECT_NAME":"STARLINK-1526","TIME_SYSTEM":"UTC","MEAN_MOTION":"15.06391309","NORAD_CAT_ID":"46029","APOAPSIS":"548.494","TLE_LINE1":"1 46029U 20055C   22003.65789264 -.00000570  00000-0 -19378-4 0  9993","RA_OF_ASC_NODE":"137.2534","CENTER_NAME":"EARTH","REF_FRAME":"TEME","SEMIMAJOR_AXIS":"6925.375","OBJECT_TYPE":"PAYLOAD","EPOCH":"2022-01-03T15:47:21.924096","MEAN_ELEMENT_THEORY":"SGP4","PERIOD":"95.593","ELEMENT_SET_NO":"999","MEAN_ANOMALY":"262.5965","MEAN_MOTION_DDOT":"0.0000000000000","INCLINATION":"53.0551","SITE":"AFETR","REV_AT_EPOCH":"7888","ARG_OF_PERICENTER":"97.5229","MEAN_MOTION_DOT":"-0.00000570","GP_ID":"193016160","CLASSIFICATION_TYPE":"U","FILE":"3256498","PERIAPSIS":"545.987","RCS_SIZE":"LARGE","EPHEMERIS_TYPE":"0","BSTAR":"-0.00001937800000","ECCENTRICITY":"0.00018100","TLE_LINE2":"2 46029  53.0551 137.2534 0001810  97.5229 262.5965 15.06391309 78884","OBJECT_ID":"2020-055C"}];
